#aV2021 11  4  0  0  0.00000000     288 DD+AD WGS84 FIT  NGA
## 2182 345600.00000000   300.00000000 59522 0.0000000000000
+   32     1  2  3  4  5  6  7  8  9 10 11 12 13 14 15 16 17
+         18 19 20 21 22 23 24 25 26 27 28 29 30 31 32  0  0
+          0  0  0  0  0  0  0  0  0  0  0  0  0  0  0  0  0
+          0  0  0  0  0  0  0  0  0  0  0  0  0  0  0  0  0
+          0  0  0  0  0  0  0  0  0  0  0  0  0  0  0  0  0
++         2  2  2  2  2  2  2  2  2  2  2  2  2  2  2  2  2
++         2  2  2  2  2  2  2  2  2  2  2  2  2  2  2  0  0
++         0  0  0  0  0  0  0  0  0  0  0  0  0  0  0  0  0
++         0  0  0  0  0  0  0  0  0  0  0  0  0  0  0  0  0
++         0  0  0  0  0  0  0  0  0  0  0  0  0  0  0  0  0
%c cc cc ccc ccc cccc cccc cccc cccc ccccc ccccc ccccc ccccc
%c cc cc ccc ccc cccc cccc cccc cccc ccccc ccccc ccccc ccccc
%f  0.0000000  0.000000000  0.00000000000  0.000000000000000
%f  0.0000000  0.000000000  0.00000000000  0.000000000000000
%i    0    0    0    0      0      0      0      0         0
%i    0    0    0    0      0      0      0      0         0
/*      NGA, ST. LOUIS,MO.                                  
/*   EPHEMERIS COMPUTED FROM 2 DAYS OF DATA                 
/*   EPOCHA v7 SMOOTHER                                     
/*   G2139 IERS2010 SATIGS SATAPC                           
*  2021 11  4 11  5  0.00000000
P  1  15794.938347  13432.075148 -17066.647651    520.279590                    
V  1 -20911.136793  -1692.911299 -20698.789638     -0.106024                    
P  2   8071.314621 -14510.909306  21409.318383   -640.547881                    
V  2  25594.678102   1668.663983  -8708.141888     -0.016546                    
P  3  12797.377003  22990.019861   3903.665502     -5.481076                    
V  3   -188.135660   5598.169610 -31402.253384     -0.082751                    
P  4   7225.892749  14505.453624  21031.260957   -202.569010                    
V  4 -17294.765078  20380.374449  -8184.385472      0.007442                    
P  5  -3988.434163 -24240.212280   9730.969443    -59.927377                    
V  5   7940.600649  10227.151852  28399.692260     -0.012772                    
P  6  21764.635788  -6590.765167  13833.508124    109.862201                    
V  6  17080.071903   3606.363366 -25216.448533      0.088352                    
P  7  25759.133542   6345.675360   4359.299379    273.053107                    
V  7  -5289.476211   1948.265268  30601.480084      0.056231                    
P  8  -2278.462548  21402.975978 -15357.302230    -42.770660                    
V  8 -13129.366917  14702.205163  22768.735051     -0.015389                    
P  9  16004.316613   3146.729282  20893.257007   -361.873234                    
V  9 -14959.532827  22153.091945   8066.573905      0.000995                    
P 10 -15256.601177   1900.606522 -21566.357521   -238.609155                    
V 10 -10720.739022 -25443.377652   5028.275881     -0.083494                    
P 11  10611.623912 -12798.162656  20702.254781     20.504789                    
V 11  25752.436946   5445.064318  -9844.769635     -0.010361                    
P 12 -10243.371480 -24441.266664   2402.070729   -121.380993                    
V 12   1139.814672  -3936.255181 -31710.843402     -0.055353                    
P 13  10752.926571 -21698.557465 -10879.835458    209.541085                    
V 13  11192.090503  -8120.125740  27789.136137      0.056069                    
P 14  15586.709241  -1712.457677 -21443.095831    -31.983767                    
V 14   9319.792744  25601.368680   4675.437372     -0.071065                    
P 15  -1132.438515 -21560.916769 -15648.342266   -108.984269                    
V 15  11980.277598 -15484.915453  21341.825874      0.027951                    
P 16  -1213.717213  23172.707106  12238.424345   -418.391799                    
V 16  -7337.398381 -14532.704835  26703.888947     -0.064003                    
P 17  20273.376899  -9734.353172 -13706.739869    528.871412                    
V 17 -10307.401469  14997.024204 -25080.578362      0.054350                    
P 18 -25940.831895  -5372.247871   2548.305978    300.709267                    
V 18   3535.908720  -1957.614286  31678.779355     -0.055964                    
P 19  20499.215983 -15444.394775  -6745.916277     74.778541                    
V 19  -3978.034055   7547.787527 -30728.285884      0.049994                    
P 20   3658.654235 -19149.604057  18129.786927    518.299675                    
V 20  13644.392121  18641.647098  16652.689999     -0.002010                    
P 21   7751.227505  14544.962892 -20262.928366    149.962896                    
V 21 -27182.474053   -349.208614  -9755.428286      0.011837                    
P 22  10066.954513  24302.266340  -4238.051758   -472.967770                    
V 22  -5650.153443  -3224.706249 -30466.849901      0.091111                    
P 23 -17701.413839 -10140.833163 -17074.593670     36.973953                    
V 23  -7611.363042 -20271.843702  19873.645407     -0.045070                    
P 24 -11866.873597 -14645.472377 -19136.793071    263.119578                    
V 24  23719.107343   -364.382459 -14229.253282      0.046861                    
P 25 -16357.364422 -17581.999846  11379.365598    235.238560                    
V 25  -3762.647236 -14460.960395 -26848.751218      0.059904                    
P 26  -9910.712297  13637.815248  20397.731925    151.903117                    
V 26 -12595.924813 -22990.652460   9513.923824      0.038655                    
P 27 -11017.546686  22910.374003  -7166.036355   -214.934181                    
V 27  -7373.987840   5649.255691  30528.978550     -0.047852                    
P 28  12103.190672  -9543.663469 -21117.812374    469.504037                    
V 28   9083.435909  26528.544804  -6412.013958     -0.073904                    
P 29 -12835.584008  -7551.742829  21953.971640   -435.850740                    
V 29  18161.913570 -21190.749451   3260.784402     -0.053868                    
P 30  25806.505063  -1286.851605  -6594.848868   -488.428744                    
V 30   7910.256433   4353.429698  29556.284330     -0.033135                    
P 31 -20633.662356   7774.044618  15032.074900   -148.429475                    
V 31 -18646.432720  -4551.813702 -22611.101892     -0.019450                    
P 32 -19743.730270  13499.233834 -11239.870420    -17.858421                    
V 32   6445.395273 -13280.246325 -27173.243180     -0.045218                    
EOF
